COSMOS 1743             
1 16719U 86034A   25320.46458723  .00038382  00000+0  67101-3 0  9997
2 16719  82.5377 191.8427 0006666   4.8737 355.2578 15.50450966162660
SL-14 R/B               
1 16792U 86046B   25320.37648089  .00000886  00000+0  99646-4 0  9995
2 16792  82.4828 187.2099 0021779 240.9650 118.9384 14.85448113109583
SL-14 R/B               
1 16882U 86055B   25320.25089198  .00001133  00000+0  12817-3 0  9992
2 16882  82.5218 233.2590 0018819 352.5122 122.3376 14.85491739102529
AJISAI (EGS)            
1 16908U 86061A   25320.49471325 -.00000105  00000+0 -55691-4 0  9999
2 16908  50.0091  81.4169 0011196 359.8209 123.6385 12.44514154453904
COSMOS 1812             
1 17295U 87003A   25320.45043495  .00095656  00000+0  78409-3 0  9999
2 17295  82.4874 320.3548 0005618 130.2558 229.9196 15.70153959126527
SL-14 R/B               
1 17567U 87024B   25319.64295558  .00000962  00000+0  10722-3 0  9992
2 17567  82.5298 199.9061 0016779 279.7341  80.1980 14.85986934 71191
COSMOS 1833             
1 17589U 87027A   25319.67552303 -.00000169  00000+0 -64673-4 0  9992
2 17589  70.9143 205.6705 0021370   9.8553 350.2982 14.13019294994201
SL-16 R/B               
1 17590U 87027B   25320.26239756 -.00000130  00000+0 -40551-4 0  9992
2 17590  71.0003 155.5106 0007264 287.3031  72.7298 14.17147560999313
SL-14 R/B               
1 17912U 87038B   25320.52256123  .00001030  00000+0  11705-3 0  9994
2 17912  82.5037  43.3895 0019461 174.3707 185.7731 14.85225798 62437
COSMOS 1844             
1 17973U 87041A   25320.32636841  .00000318  00000+0  19021-3 0  9999
2 17973  70.8992 273.2793 0031451 197.1665 162.8396 14.14524855987554
SL-14 R/B               
1 18153U 87055B   25320.45171122  .00001052  00000+0  11866-3 0  9990
2 18153  82.4979  95.7611 0021443  31.5671 328.6826 14.85481573 53127
COSMOS 1867             
1 18187U 87060A   25320.19483058  .00000075  00000+0  65680-4 0  9996
2 18187  65.0102 264.5371 0013684 268.4661  91.4856 14.31480192  3698
