CCSDS_OMM_VERS = 2.0
CREATION_DATE  = 
ORIGINATOR     = 

OBJECT_NAME    = COSMOS 1743
OBJECT_ID      = 1986-034A
CENTER_NAME    = EARTH
REF_FRAME      = TEME
TIME_SYSTEM    = UTC
MEAN_ELEMENT_THEORY = SGP/SGP4

EPOCH          = 2025-11-16T11:09:00.336672
MEAN_MOTION    = 15.50450966
ECCENTRICITY   = .0006666
INCLINATION    = 82.5377
RA_OF_ASC_NODE = 191.8427
ARG_OF_PERICENTER = 4.8737
MEAN_ANOMALY   = 355.2578

EPHEMERIS_TYPE = 0
CLASSIFICATION_TYPE = U
NORAD_CAT_ID   = 16719
ELEMENT_SET_NO = 999
REV_AT_EPOCH   = 16266
BSTAR          = .67101E-3
MEAN_MOTION_DOT = .38382E-3
MEAN_MOTION_DDOT = 0

CCSDS_OMM_VERS = 2.0
CREATION_DATE  = 
ORIGINATOR     = 

OBJECT_NAME    = SL-14 R/B
OBJECT_ID      = 1986-046B
CENTER_NAME    = EARTH
REF_FRAME      = TEME
TIME_SYSTEM    = UTC
MEAN_ELEMENT_THEORY = SGP/SGP4

EPOCH          = 2025-11-16T09:02:07.948896
MEAN_MOTION    = 14.85448113
ECCENTRICITY   = .0021779
INCLINATION    = 82.4828
RA_OF_ASC_NODE = 187.2099
ARG_OF_PERICENTER = 240.9650
MEAN_ANOMALY   = 118.9384

EPHEMERIS_TYPE = 0
CLASSIFICATION_TYPE = U
NORAD_CAT_ID   = 16792
ELEMENT_SET_NO = 999
REV_AT_EPOCH   = 10958
BSTAR          = .99646E-4
MEAN_MOTION_DOT = .886E-5
MEAN_MOTION_DDOT = 0

CCSDS_OMM_VERS = 2.0
CREATION_DATE  = 
ORIGINATOR     = 

OBJECT_NAME    = SL-14 R/B
OBJECT_ID      = 1986-055B
CENTER_NAME    = EARTH
REF_FRAME      = TEME
TIME_SYSTEM    = UTC
MEAN_ELEMENT_THEORY = SGP/SGP4

EPOCH          = 2025-11-16T06:01:17.067072
MEAN_MOTION    = 14.85491739
ECCENTRICITY   = .0018819
INCLINATION    = 82.5218
RA_OF_ASC_NODE = 233.2590
ARG_OF_PERICENTER = 352.5122
MEAN_ANOMALY   = 122.3376

EPHEMERIS_TYPE = 0
CLASSIFICATION_TYPE = U
NORAD_CAT_ID   = 16882
ELEMENT_SET_NO = 999
REV_AT_EPOCH   = 10252
BSTAR          = .12817E-3
MEAN_MOTION_DOT = .1133E-4
MEAN_MOTION_DDOT = 0

CCSDS_OMM_VERS = 2.0
CREATION_DATE  = 
ORIGINATOR     = 

OBJECT_NAME    = AJISAI (EGS)
OBJECT_ID      = 1986-061A
CENTER_NAME    = EARTH
REF_FRAME      = TEME
TIME_SYSTEM    = UTC
MEAN_ELEMENT_THEORY = SGP/SGP4

EPOCH          = 2025-11-16T11:52:23.224800
MEAN_MOTION    = 12.44514154
ECCENTRICITY   = .0011196
INCLINATION    = 50.0091
RA_OF_ASC_NODE = 81.4169
ARG_OF_PERICENTER = 359.8209
MEAN_ANOMALY   = 123.6385

EPHEMERIS_TYPE = 0
CLASSIFICATION_TYPE = U
NORAD_CAT_ID   = 16908
ELEMENT_SET_NO = 999
REV_AT_EPOCH   = 45390
BSTAR          = -.55691E-4
MEAN_MOTION_DOT = -.105E-5
MEAN_MOTION_DDOT = 0

CCSDS_OMM_VERS = 2.0
CREATION_DATE  = 
ORIGINATOR     = 

OBJECT_NAME    = COSMOS 1812
OBJECT_ID      = 1987-003A
CENTER_NAME    = EARTH
REF_FRAME      = TEME
TIME_SYSTEM    = UTC
MEAN_ELEMENT_THEORY = SGP/SGP4

EPOCH          = 2025-11-16T10:48:37.579680
MEAN_MOTION    = 15.70153959
ECCENTRICITY   = .0005618
INCLINATION    = 82.4874
RA_OF_ASC_NODE = 320.3548
ARG_OF_PERICENTER = 130.2558
MEAN_ANOMALY   = 229.9196

EPHEMERIS_TYPE = 0
CLASSIFICATION_TYPE = U
NORAD_CAT_ID   = 17295
ELEMENT_SET_NO = 999
REV_AT_EPOCH   = 12652
BSTAR          = .78409E-3
MEAN_MOTION_DOT = .95656E-3
MEAN_MOTION_DDOT = 0

CCSDS_OMM_VERS = 2.0
CREATION_DATE  = 
ORIGINATOR     = 

OBJECT_NAME    = SL-14 R/B
OBJECT_ID      = 1987-024B
CENTER_NAME    = EARTH
REF_FRAME      = TEME
TIME_SYSTEM    = UTC
MEAN_ELEMENT_THEORY = SGP/SGP4

EPOCH          = 2025-11-15T15:25:51.362112
MEAN_MOTION    = 14.85986934
ECCENTRICITY   = .0016779
INCLINATION    = 82.5298
RA_OF_ASC_NODE = 199.9061
ARG_OF_PERICENTER = 279.7341
MEAN_ANOMALY   = 80.1980

EPHEMERIS_TYPE = 0
CLASSIFICATION_TYPE = U
NORAD_CAT_ID   = 17567
ELEMENT_SET_NO = 999
REV_AT_EPOCH   = 7119
BSTAR          = .10722E-3
MEAN_MOTION_DOT = .962E-5
MEAN_MOTION_DDOT = 0

CCSDS_OMM_VERS = 2.0
CREATION_DATE  = 
ORIGINATOR     = 

OBJECT_NAME    = COSMOS 1833
OBJECT_ID      = 1987-027A
CENTER_NAME    = EARTH
REF_FRAME      = TEME
TIME_SYSTEM    = UTC
MEAN_ELEMENT_THEORY = SGP/SGP4

EPOCH          = 2025-11-15T16:12:45.189792
MEAN_MOTION    = 14.13019294
ECCENTRICITY   = .002137
INCLINATION    = 70.9143
RA_OF_ASC_NODE = 205.6705
ARG_OF_PERICENTER = 9.8553
MEAN_ANOMALY   = 350.2982

EPHEMERIS_TYPE = 0
CLASSIFICATION_TYPE = U
NORAD_CAT_ID   = 17589
ELEMENT_SET_NO = 999
REV_AT_EPOCH   = 99420
BSTAR          = -.64673E-4
MEAN_MOTION_DOT = -.169E-5
MEAN_MOTION_DDOT = 0

CCSDS_OMM_VERS = 2.0
CREATION_DATE  = 
ORIGINATOR     = 

OBJECT_NAME    = SL-16 R/B
OBJECT_ID      = 1987-027B
CENTER_NAME    = EARTH
REF_FRAME      = TEME
TIME_SYSTEM    = UTC
MEAN_ELEMENT_THEORY = SGP/SGP4

EPOCH          = 2025-11-16T06:17:51.149184
MEAN_MOTION    = 14.17147560
ECCENTRICITY   = .0007264
INCLINATION    = 71.0003
RA_OF_ASC_NODE = 155.5106
ARG_OF_PERICENTER = 287.3031
MEAN_ANOMALY   = 72.7298

EPHEMERIS_TYPE = 0
CLASSIFICATION_TYPE = U
NORAD_CAT_ID   = 17590
ELEMENT_SET_NO = 999
REV_AT_EPOCH   = 99931
BSTAR          = -.40551E-4
MEAN_MOTION_DOT = -.13E-5
MEAN_MOTION_DDOT = 0

CCSDS_OMM_VERS = 2.0
CREATION_DATE  = 
ORIGINATOR     = 

OBJECT_NAME    = SL-14 R/B
OBJECT_ID      = 1987-038B
CENTER_NAME    = EARTH
REF_FRAME      = TEME
TIME_SYSTEM    = UTC
MEAN_ELEMENT_THEORY = SGP/SGP4

EPOCH          = 2025-11-16T12:32:29.290272
MEAN_MOTION    = 14.85225798
ECCENTRICITY   = .0019461
INCLINATION    = 82.5037
RA_OF_ASC_NODE = 43.3895
ARG_OF_PERICENTER = 174.3707
MEAN_ANOMALY   = 185.7731

EPHEMERIS_TYPE = 0
CLASSIFICATION_TYPE = U
NORAD_CAT_ID   = 17912
ELEMENT_SET_NO = 999
REV_AT_EPOCH   = 6243
BSTAR          = .11705E-3
MEAN_MOTION_DOT = .103E-4
MEAN_MOTION_DDOT = 0

CCSDS_OMM_VERS = 2.0
CREATION_DATE  = 
ORIGINATOR     = 

OBJECT_NAME    = COSMOS 1844
OBJECT_ID      = 1987-041A
CENTER_NAME    = EARTH
REF_FRAME      = TEME
TIME_SYSTEM    = UTC
MEAN_ELEMENT_THEORY = SGP/SGP4

EPOCH          = 2025-11-16T07:49:58.230624
MEAN_MOTION    = 14.14524855
ECCENTRICITY   = .0031451
INCLINATION    = 70.8992
RA_OF_ASC_NODE = 273.2793
ARG_OF_PERICENTER = 197.1665
MEAN_ANOMALY   = 162.8396

EPHEMERIS_TYPE = 0
CLASSIFICATION_TYPE = U
NORAD_CAT_ID   = 17973
ELEMENT_SET_NO = 999
REV_AT_EPOCH   = 98755
BSTAR          = .19021E-3
MEAN_MOTION_DOT = .318E-5
MEAN_MOTION_DDOT = 0

CCSDS_OMM_VERS = 2.0
CREATION_DATE  = 
ORIGINATOR     = 

OBJECT_NAME    = SL-14 R/B
OBJECT_ID      = 1987-055B
CENTER_NAME    = EARTH
REF_FRAME      = TEME
TIME_SYSTEM    = UTC
MEAN_ELEMENT_THEORY = SGP/SGP4

EPOCH          = 2025-11-16T10:50:27.849408
MEAN_MOTION    = 14.85481573
ECCENTRICITY   = .0021443
INCLINATION    = 82.4979
RA_OF_ASC_NODE = 95.7611
ARG_OF_PERICENTER = 31.5671
MEAN_ANOMALY   = 328.6826

EPHEMERIS_TYPE = 0
CLASSIFICATION_TYPE = U
NORAD_CAT_ID   = 18153
ELEMENT_SET_NO = 999
REV_AT_EPOCH   = 5312
BSTAR          = .11866E-3
MEAN_MOTION_DOT = .1052E-4
MEAN_MOTION_DDOT = 0

CCSDS_OMM_VERS = 2.0
CREATION_DATE  = 
ORIGINATOR     = 

OBJECT_NAME    = COSMOS 1867
OBJECT_ID      = 1987-060A
CENTER_NAME    = EARTH
REF_FRAME      = TEME
TIME_SYSTEM    = UTC
MEAN_ELEMENT_THEORY = SGP/SGP4

EPOCH          = 2025-11-16T04:40:33.362112
MEAN_MOTION    = 14.31480192
ECCENTRICITY   = .0013684
INCLINATION    = 65.0102
RA_OF_ASC_NODE = 264.5371
ARG_OF_PERICENTER = 268.4661
MEAN_ANOMALY   = 91.4856

EPHEMERIS_TYPE = 0
CLASSIFICATION_TYPE = U
NORAD_CAT_ID   = 18187
ELEMENT_SET_NO = 999
REV_AT_EPOCH   = 369
BSTAR          = .6568E-4
MEAN_MOTION_DOT = .75E-6
MEAN_MOTION_DDOT = 0

